NORAD_CAT_ID,OBJECT_NAME,OBJECT_TYPE,EPOCH,MEAN_MOTION,ECCENTRICITY,INCLINATION,RA_OF_ASC_NODE,ARG_OF_PERICENTER,MEAN_ANOMALY,BSTAR,MEAN_MOTION_DOT,MEAN_MOTION_DDOT,TLE_LINE0,TLE_LINE1,TLE_LINE2,SEMIMAJOR_AXIS,PERIOD,APOGEE,PERIGEE,DECAYED
53971.0,STARLINK-4639,PAYLOAD,2024-03-30 04:45:43,15.08841052,0.0001881,53.216,169.1068,83.9166,276.204,3.5519e-05,2.77e-06,0.0,0 STARLINK-4639,1 53971U 22125H   24090.19841577  .00000277  00000-0  35519-4 0  9997,2 53971  53.2160 169.1068 0001881  83.9166 276.2040 15.08841052 82281,6917.877,95.437,541.043,538.441,0.0
53971.0,STARLINK-4639,PAYLOAD,2024-03-30 12:42:38,15.08843109,0.0001576,53.2154,167.6221,75.9518,284.1649,3.2177e-05,2.24e-06,0.0,0 STARLINK-4639,1 53971U 22125H   24090.52961360  .00000224  00000-0  32177-4 0  9996,2 53971  53.2154 167.6221 0001576  75.9518 284.1649 15.08843109 82267,6917.871,95.437,540.826,538.646,0.0
53971.0,STARLINK-4639,PAYLOAD,2024-03-31 12:33:25,15.0884361,0.0001554,53.2159,163.1623,78.4707,281.646,0.00011485,1.54e-05,0.0,0 STARLINK-4639,1 53971U 22125H   24091.52321536  .00001540  00000-0  11485-3 0  9992,2 53971  53.2159 163.1623 0001554  78.4707 281.6460 15.08843610 82487,6917.869,95.437,540.809,538.659,0.0
53971.0,STARLINK-4639,PAYLOAD,2024-03-31 22:05:44,15.08840344,0.0001317,53.2159,161.3789,91.2788,268.8355,1.5018e-05,-4.9e-07,0.0,0 STARLINK-4639,1 53971U 22125H   24091.92065624 -.00000049  00000-0  15018-4 0  9990,2 53971  53.2159 161.3789 0001317  91.2788 268.8355 15.08840344 82479,6917.879,95.438,540.655,538.833,0.0
53971.0,STARLINK-4639,PAYLOAD,2024-04-01 04:27:18,15.08827483,0.0001549,53.2153,160.1876,88.0845,272.0324,-1.8239e-05,-5.78e-06,0.0,0 STARLINK-4639,1 53971U 22125H   24092.18562543 -.00000578  00000-0 -18239-4 0  9997,2 53971  53.2153 160.1876 0001549  88.0845 272.0324 15.08827483 82586,6917.919,95.438,540.855,538.712,0.0
53971.0,STARLINK-4639,PAYLOAD,2024-04-01 13:59:36,15.0883523,0.0001618,53.2157,158.4022,93.7323,266.3854,3.7922e-05,3.15e-06,0.0,0 STARLINK-4639,1 53971U 22125H   24092.58306379  .00000315  00000-0  37922-4 0  9991,2 53971  53.2157 158.4022 0001618  93.7323 266.3854 15.08835230 82576,6917.895,95.438,540.879,538.641,0.0
53971.0,STARLINK-4639,PAYLOAD,2024-04-02 10:39:36,15.08854457,0.0001515,53.2156,154.5354,97.9947,262.1217,0.00039925,6.074e-05,0.0,0 STARLINK-4639,1 53971U 22125H   24093.44417648  .00006074  00000-0  39925-3 0  9991,2 53971  53.2156 154.5354 0001515  97.9947 262.1217 15.08854457 82775,6917.836,95.437,540.749,538.653,0.0
53971.0,STARLINK-4639,PAYLOAD,2024-04-03 04:08:53,15.08822052,0.0001429,53.2164,151.2642,100.4521,259.6632,-2.8378e-05,-7.39e-06,0.0,0 STARLINK-4639,1 53971U 22125H   24094.17283691 -.00000739  00000-0 -28378-4 0  9996,2 53971  53.2164 151.2642 0001429 100.4521 259.6632 15.08822052 82880,6917.935,95.439,540.789,538.812,0.0
53971.0,STARLINK-4639,PAYLOAD,2024-04-03 10:30:25,15.08825736,0.0001557,53.2163,150.0732,98.4076,261.7093,7.7092e-05,9.39e-06,0.0,0 STARLINK-4639,1 53971U 22125H   24094.43779736  .00000939  00000-0  77092-4 0  9992,2 53971  53.2163 150.0732 0001557  98.4076 261.7093 15.08825736 82853,6917.924,95.438,540.866,538.712,0.0
53971.0,STARLINK-4639,PAYLOAD,2024-04-04 03:59:40,15.08839765,0.000145,53.216,146.8015,94.8003,265.3155,0.00079284,0.00012352,0.0,0 STARLINK-4639,1 53971U 22125H   24095.16644256  .00012352  00000-0  79284-3 0  9997,2 53971  53.2160 146.8015 0001450  94.8003 265.3155 15.08839765 83036,6917.881,95.438,540.749,538.743,0.0
53971.0,STARLINK-4639,PAYLOAD,2024-04-04 10:21:12,15.08850849,0.0001426,53.2161,145.6148,98.1995,261.9159,0.0008967,0.00014016,0.0,0 STARLINK-4639,1 53971U 22125H   24095.43140037  .00014016  00000-0  89670-3 0  9994,2 53971  53.2161 145.6148 0001426  98.1995 261.9159 15.08850849 83000,6917.847,95.437,540.699,538.726,0.0
53971.0,STARLINK-4639,PAYLOAD,2024-04-05 10:11:58,15.08924194,0.0001553,53.2158,141.1556,110.6167,249.4992,0.0025893,0.00041258,0.0,0 STARLINK-4639,1 53971U 22125H   24096.42498030  .00041258  00000-0  25893-2 0  9997,2 53971  53.2158 141.1556 0001553 110.6167 249.4992 15.08924194 83227,6917.623,95.432,540.562,538.414,0.0
53971.0,STARLINK-4639,PAYLOAD,2024-04-05 19:44:15,15.08917065,2.94e-05,53.2156,139.3718,78.644,281.4585,0.0013267,0.00020934,0.0,0 STARLINK-4639,1 53971U 22125H   24096.82239826  .00020934  00000-0  13267-2 0  9997,2 53971  53.2156 139.3718 0000294  78.6440 281.4585 15.08917065 83281,6917.645,95.433,539.713,539.306,0.0
53971.0,STARLINK-4639,PAYLOAD,2024-04-06 11:38:07,15.08837537,0.0001419,53.2155,136.3978,90.9716,269.1439,-0.00050656,-8.34e-05,0.0,0 STARLINK-4639,1 53971U 22125H   24097.48480984 -.00008340  00000-0 -50656-3 0  9996,2 53971  53.2155 136.3978 0001419  90.9716 269.1439 15.08837537 83385,6917.888,95.438,540.735,538.771,0.0
53971.0,STARLINK-4639,PAYLOAD,2024-04-06 19:35:03,15.08825367,0.0001528,53.2154,134.9108,91.211,268.9057,0.00020381,2.956e-05,0.0,0 STARLINK-4639,1 53971U 22125H   24097.81601701  .00002956  00000-0  20381-3 0  9992,2 53971  53.2154 134.9108 0001528  91.2110 268.9057 15.08825367 83365,6917.925,95.438,540.847,538.733,0.0
53971.0,STARLINK-4639,PAYLOAD,2024-04-07 09:53:32,15.08827511,0.000148,53.2151,132.2337,88.2971,271.8191,0.00035532,5.37e-05,0.0,0 STARLINK-4639,1 53971U 22125H   24098.41218399  .00005370  00000-0  35532-3 0  9993,2 53971  53.2151 132.2337 0001480  88.2971 271.8191 15.08827511 83450,6917.919,95.438,540.807,538.76,0.0
53971.0,STARLINK-4639,PAYLOAD,2024-04-07 19:25:51,15.08834503,0.0001548,53.2153,130.4498,88.1468,271.9702,0.0004612,7.059e-05,0.0,0 STARLINK-4639,1 53971U 22125H   24098.80962594  .00007059  00000-0  46120-3 0  9990,2 53971  53.2153 130.4498 0001548  88.1468 271.9702 15.08834503 83587,6917.897,95.438,540.833,538.691,0.0
53971.0,STARLINK-4639,PAYLOAD,2024-04-08 11:19:42,15.08851288,0.0001466,53.2144,127.4754,89.4949,270.6211,0.00065459,0.00010148,0.0,0 STARLINK-4639,1 53971U 22125H   24099.47202260  .00010148  00000-0  65459-3 0  9990,2 53971  53.2144 127.4754 0001466  89.4949 270.6211 15.08851288 83619,6917.846,95.437,540.725,538.697,0.0
53971.0,STARLINK-4639,PAYLOAD,2024-04-08 19:16:38,15.08841923,0.0001371,53.2135,125.988,88.843,271.2719,0.0002615,3.877e-05,0.0,0 STARLINK-4639,1 53971U 22125H   24099.80322460  .00003877  00000-0  26150-3 0  9998,2 53971  53.2135 125.9880 0001371  88.8430 271.2719 15.08841923 83665,6917.875,95.437,540.688,538.791,0.0
53971.0,STARLINK-4639,PAYLOAD,2024-04-09 01:38:11,15.08841916,0.0001395,53.2136,124.7985,88.9006,271.2146,0.00024811,3.663e-05,0.0,0 STARLINK-4639,1 53971U 22125H   24100.06818535  .00003663  00000-0  24811-3 0  9997,2 53971  53.2136 124.7985 0001395  88.9006 271.2146 15.08841916 83773,6917.875,95.437,540.705,538.774,0.0
53971.0,STARLINK-4639,PAYLOAD,2024-04-09 07:59:43,15.08838296,0.0001403,53.2141,123.609,88.2461,271.8691,0.0001547,2.175e-05,0.0,0 STARLINK-4639,1 53971U 22125H   24100.33314736  .00002175  00000-0  15470-3 0  9999,2 53971  53.2141 123.6090 0001403  88.2461 271.8691 15.08838296 83747,6917.886,95.438,540.721,538.78,0.0
53971.0,STARLINK-4639,PAYLOAD,2024-04-09 19:07:25,15.0884249,0.0001506,53.215,121.5268,91.8585,268.258,0.00017833,2.551e-05,0.0,0 STARLINK-4639,1 53971U 22125H   24100.79682655  .00002551  00000-0  17833-3 0  9990,2 53971  53.2150 121.5268 0001506  91.8585 268.2580 15.08842490 83818,6917.873,95.437,540.78,538.696,0.0
53971.0,STARLINK-4639,PAYLOAD,2024-04-10 04:39:44,15.08847167,0.0001417,53.2141,119.7428,87.9225,272.1929,0.0002105,3.064e-05,0.0,0 STARLINK-4639,1 53971U 22125H   24101.19426341  .00003064  00000-0  21050-3 0  9999,2 53971  53.2141 119.7428 0001417  87.9225 272.1929 15.08847167 83944,6917.858,95.437,540.704,538.743,0.0
53971.0,STARLINK-4639,PAYLOAD,2024-04-10 06:15:07,15.08848269,0.0001397,53.2147,119.4456,88.7106,271.4046,0.00016305,2.309e-05,0.0,0 STARLINK-4639,1 53971U 22125H   24101.26050212  .00002309  00000-0  16305-3 0  9995,2 53971  53.2147 119.4456 0001397  88.7106 271.4046 15.08848269 83881,6917.855,95.437,540.687,538.754,0.0
53971.0,STARLINK-4639,PAYLOAD,2024-04-11 04:30:31,15.08835603,0.0001336,53.2149,115.2827,84.7733,275.3411,5.6214e-05,6.07e-06,0.0,0 STARLINK-4639,1 53971U 22125H   24102.18786855  .00000607  00000-0  56214-4 0  9999,2 53971  53.2149 115.2827 0001336  84.7733 275.3411 15.08835603 84095,6917.894,95.438,540.683,538.835,0.0
53971.0,STARLINK-4639,PAYLOAD,2024-04-11 07:41:18,15.08835455,0.0001314,53.215,114.6876,84.1632,275.951,1.9823e-05,2.8e-07,0.0,0 STARLINK-4639,1 53971U 22125H   24102.32034859  .00000028  00000-0  19823-4 0  9997,2 53971  53.2150 114.6876 0001314  84.1632 275.9510 15.08835455 84048,6917.894,95.438,540.668,538.85,0.0
53971.0,STARLINK-4639,PAYLOAD,2024-04-11 17:13:37,15.0883707,0.0001271,53.216,112.904,83.4747,276.639,4.8299e-05,4.81e-06,0.0,0 STARLINK-4639,1 53971U 22125H   24102.71779029  .00000481  00000-0  48299-4 0  9997,2 53971  53.2160 112.9040 0001271  83.4747 276.6390 15.08837070 84100,6917.889,95.438,540.634,538.875,0.0
53971.0,STARLINK-4639,PAYLOAD,2024-04-12 07:32:05,15.08840139,0.0001357,53.2165,110.2281,93.0959,267.0188,5.4444e-05,5.79e-06,0.0,0 STARLINK-4639,1 53971U 22125H   24103.31394791  .00000579  00000-0  54444-4 0  9990,2 53971  53.2165 110.2281 0001357  93.0959 267.0188 15.08840139 84266,6917.88,95.438,540.684,538.806,0.0
53971.0,STARLINK-4639,PAYLOAD,2024-04-13 08:58:15,15.08838093,0.0001383,53.2167,105.4694,92.2697,267.8454,0.00012298,1.67e-05,0.0,0 STARLINK-4639,1 53971U 22125H   24104.37379086  .00001670  00000-0  12298-3 0  9990,2 53971  53.2167 105.4694 0001383  92.2697 267.8454 15.08838093 84429,6917.886,95.438,540.708,538.794,0.0
53971.0,STARLINK-4639,PAYLOAD,2024-04-14 08:49:02,15.08842509,0.000142,53.2169,101.009,88.758,271.3575,9.0699e-05,1.156e-05,0.0,0 STARLINK-4639,1 53971U 22125H   24105.36739113  .00001156  00000-0  90699-4 0  9992,2 53971  53.2169 101.0090 0001420  88.7580 271.3575 15.08842509 84506,6917.873,95.437,540.72,538.755,0.0
